STARLINK-4773           
1 53838U 22114W   26068.91757070  .00001601  00000+0  11869-3 0  9990
2 53838  53.2171 293.2646 0001329  95.1019 265.0124 15.08828883193004
LEMUR-2-KREMPEL-BRO2    
1 63353U 25061C   26068.86379736  .00007837  00000+0  44347-3 0  9994
2 63353  97.5616  45.5365 0017924 236.8576 123.0936 15.13192951 52585
